satname,norad_id,inclination_deg,eccentricity,mean_motion_rev_per_day,perigee_km,apogee_km,l1,l2
STARLINK-1227,45230,53.0549,0.0001506,15.06410492,546.1364490059532,548.2223543061318,1 45230U 20012BE  25273.53429525  .00007006  00000+0  48862-3 0  9996,2 45230  53.0549   5.5818 0001506 107.0077 253.1078 15.06410492311275
STARLINK-1238,45233,53.0348,0.0005576,16.11471517,239.11776551557523,246.50144516985347,1 45233U 20012BH  25273.51621551  .01428245  14392-2  13660-2 0  9992,2 45233  53.0348 326.0873 0005576  15.4336 344.6868 16.11471517311790
STARLINK-1246,45235,53.0568,0.000139,15.06397333,546.257107335482,548.1823565069553,1 45235U 20012BK  25273.74808175  .00001764  00000+0  13731-3 0  9998,2 45235  53.0568  44.6230 0001390  93.3764 266.7384 15.06397333310754
STARLINK-1247,45236,53.037,0.0004189,16.06115061,254.7424998656088,260.301855124515,1 45236U 20012BL  25273.28782030  .00885185  42292-3  11787-2 0  9997,2 45236  53.0370 307.4827 0004189  29.8422 330.2848 16.06115061312045
STARLINK-1270,45237,53.0558,0.0001505,15.06412667,546.13047656448,548.2149947949192,1 45237U 20012BM  25273.61906807  .00005860  00000+0  41183-3 0  9990,2 45237  53.0558   5.2032 0001505  95.7912 264.3249 15.06412667311277
STARLINK-1279,45360,53.0536,0.0001564,15.06389553,546.1604471514856,548.3267061958695,1 45360U 20019A   25273.84299742 -.00000817  00000+0 -35998-4 0  9999,2 45360  53.0536 134.1966 0001564 121.8404 238.2737 15.06389553306048
STARLINK-1301,45361,53.0532,0.0002234,15.06393009,545.6858567747322,548.7801120837757,1 45361U 20019B   25273.63198184 -.00002238  00000+0 -13141-3 0  9999,2 45361  53.0532 145.1467 0002234  77.8214 282.3025 15.06393009305889
STARLINK-1306,45362,53.0492,0.0009823,15.58970897,383.98526587266224,397.2831938308291,1 45362U 20019C   25273.91668980  .00143529  00000+0  17841-2 0  9994,2 45362  53.0492 143.7734 0009823 122.5767 237.4639 15.58970897  5970
STARLINK-1262,45366,53.0544,0.0001479,15.06384681,546.2342428690572,548.2827748605796,1 45366U 20019G   25273.72965771  .00008496  00000+0  58884-3 0  9991,2 45366  53.0544 164.7050 0001479  84.8971 275.2187 15.06384681305628
STARLINK-1273,45367,53.0524,0.0001637,15.06424852,546.0017240943262,548.2690582752002,1 45367U 20019H   25273.42002260  .00003239  00000+0  23608-3 0  9990,2 45367  53.0524 166.0948 0001637  73.3756 286.7412 15.06424852305575
STARLINK-1276,45368,53.053,0.000331,15.06397525,544.9268505837108,549.5114363506864,1 45368U 20019J   25273.72227527 -.00005946  00000+0 -38055-3 0  9990,2 45368  53.0530 164.7391 0003310  97.8691 262.2674 15.06397525305620
STARLINK-1277,45369,53.0527,0.0001169,15.06416329,546.3519449610576,547.9710797532471,1 45369U 20019K   25273.84767796  .00041027  00000+0  27560-2 0  9997,2 45369  53.0527 164.8061 0001169  90.4823 269.6300 15.06416329305630
STARLINK-1281,45370,53.0536,0.000147,15.06379378,546.256726590168,548.2927976482297,1 45370U 20019L   25273.84391550 -.00010805  00000+0 -70797-3 0  9993,2 45370  53.0536 164.1958 0001470  74.5352 285.5799 15.06379378305647
STARLINK-1300,45374,53.054,0.0001445,15.06387366,546.2495611373752,548.2509980611785,1 45374U 20019Q   25273.73333086 -.00015699  00000+0 -10377-2 0  9998,2 45374  53.0540 164.6894 0001445 107.3847 252.7300 15.06387366305624
STARLINK-1302,45375,53.0524,0.000139,15.06449366,546.0976599705409,548.0228648094844,1 45375U 20019R   25273.01825805  .00021066  00000+0  14270-2 0  9994,2 45375  53.0524 167.9028 0001390  79.7589 280.3557 15.06449366305514
STARLINK-1304,45376,53.0531,0.0001239,15.06422974,546.2831048696098,547.9991887943943,1 45376U 20019S   25273.43476504  .00002040  00000+0  15570-3 0  9995,2 45376  53.0531 166.0314 0001239 110.9503 249.1619 15.06422974305571
STARLINK-1305,45377,53.0527,0.0001069,15.06390742,546.4996097261146,547.9802553142881,1 45377U 20019T   25272.00095068 -.00003008  00000+0 -18317-3 0  9999,2 45377  53.0527 172.4646 0001069  97.2489 262.8622 15.06390742305367
STARLINK-1319,45379,53.0539,0.0001661,15.06389128,546.0945733226854,548.3951851829715,1 45379U 20019V   25273.85129337 -.00008216  00000+0 -53344-3 0  9997,2 45379  53.0539 164.1630 0001661 101.2693 258.8482 15.06389128305640
STARLINK-1258,45381,53.036,0.0006569,16.17717925,221.41711606215904,230.09330965140998,1 45381U 20019X   25273.54297554  .01873971  36622-2  12008-2 0  9993,2 45381  53.0360  83.3588 0006569 274.9127  85.1160 16.17717925306739
STARLINK-1266,45383,53.053,0.0001653,15.06395858,546.0794903857523,548.3690148158621,1 45383U 20019Z   25273.85313604 -.00005699  00000+0 -36401-3 0  9991,2 45383  53.0530 144.1541 0001653 111.3707 248.7458 15.06395858305912
STARLINK-1267,45384,53.0543,0.0001414,15.06410932,546.1988135868824,548.157292683908,1 45384U 20019AA  25273.83847937  .00003080  00000+0  22549-3 0  9999,2 45384  53.0543 144.8785 0001414  85.1422 274.9729 15.06410932305903
STARLINK-1272,45386,53.0526,0.0001472,15.06391481,546.2182524182972,548.257082720429,1 45386U 20019AC  25273.84577042 -.00003555  00000+0 -21990-3 0  9997,2 45386  53.0526 144.1891 0001472  70.8768 289.2381 15.06391481305916
STARLINK-1274,45387,53.0338,0.0007897,15.25605207,483.54576098594407,494.391667751217,1 45387U 20019AD  25273.77030975  .00072600  00000+0  28035-2 0  9990,2 45387  53.0338 134.3683 0007897 106.7375 253.4489 15.25605207306040
STARLINK-1280,45388,53.0534,0.0001009,15.06380469,546.5726445776518,547.9701919964627,1 45388U 20019AE  25273.10674202  .00001108  00000+0  93307-4 0  9996,2 45388  53.0534 167.5083 0001009  35.8937 324.2119 15.06380469305513
STARLINK-1283,45389,53.0532,0.0001318,15.06405917,546.2806646950576,548.1061817946238,1 45389U 20019AF  25272.95376045  .00012831  00000+0  87859-3 0  9992,2 45389  53.0532 148.1912 0001318  93.3814 266.7326 15.06405917305789
STARLINK-1284,45390,53.0539,0.0001288,15.06405266,546.3034356382404,548.0874012692339,1 45390U 20019AG  25273.85682007  .00004398  00000+0  31389-3 0  9998,2 45390  53.0539 144.1393 0001288 118.6581 241.4537 15.06405266305911
STARLINK-1292,45394,53.0497,0.0004199,15.76801649,336.68852240943033,342.33000174032077,1 45394U 20019AL  25273.91668980  .00285512  00000+0  16845-2 0  9991,2 45394  53.0497 111.3383 0004199 202.0014   1.8999 15.76801649  6017
STARLINK-1297,45395,53.0526,0.0001274,15.06385769,546.3728792840084,548.1374692100071,1 45395U 20019AM  25273.62829281 -.00009485  00000+0 -61895-3 0  9994,2 45395  53.0526 145.1632 0001274  82.8127 277.3007 15.06385769305063
STARLINK-1307,45397,53.0534,0.0001426,15.06408495,546.1979711174808,548.1730731007865,1 45397U 20019AP  25272.95744635  .00002116  00000+0  16085-3 0  9993,2 45397  53.0534 148.1722 0001426  84.3043 275.8108 15.06408495305607
STARLINK-1312,45398,53.0477,0.0007467,15.75641381,337.7881477679275,347.82520505428056,1 45398U 20019AQ  25273.91668980  .00392746  00000+0  24041-2 0  9990,2 45398  53.0477 110.8821 0007467 128.8197 236.1723 15.75641381  6010
STARLINK-1255,45399,53.0531,0.0001274,15.06384196,546.3776997683517,548.1422909227649,1 45399U 20019AR  25273.85405302 -.00006119  00000+0 -39244-3 0  9991,2 45399  53.0531 134.1507 0001274 102.3264 257.7867 15.06384196305869
STARLINK-1259,45403,53.0456,0.0003997,15.88775867,303.0423403833511,308.38541077328864,1 45403U 20019AV  25273.91668980  .00500355  00000+0  16409-2 0  9993,2 45403  53.0456  91.9931 0003997 110.9442   4.8149 15.88775867  5993
STARLINK-1260,45404,53.0527,0.0001984,15.0639322,545.8583444631086,548.6063310163236,1 45404U 20019AW  25273.75453774 -.00007916  00000+0 -51321-3 0  9999,2 45404  53.0527 134.5985 0001984  83.7209 276.4006 15.06393220305753
STARLINK-1263,45405,53.0529,0.0002222,15.06395151,545.6876037129541,548.7652352165642,1 45405U 20019AX  25273.80614875  .00001526  00000+0  12136-3 0  9997,2 45405  53.0529 134.3647 0002222  82.4246 277.6995 15.06395151305768
STARLINK-1265,45406,53.0538,0.0001475,15.06406782,546.1692863166536,548.2122580094419,1 45406U 20019AY  25272.88465161  .00000340  00000+0  41730-4 0  9993,2 45406  53.0538 138.5032 0001475  81.0498 279.0658 15.06406782305626
STARLINK-1278,45408,53.0528,0.0001386,15.06425514,546.1735198344204,548.0932047788519,1 45408U 20019BA  25273.84021473  .00019604  00000+0  13304-2 0  9993,2 45408  53.0528 164.2130 0001386  90.0001 270.1147 15.06425514305352
STARLINK-1296,45412,53.0543,0.0001051,15.06402414,546.4763060299856,547.9320127416886,1 45412U 20019BE  25273.35276897 -.00000788  00000+0 -34022-4 0  9993,2 45412  53.0543 136.3995 0001051 109.6384 250.4718 15.06402414305699
STARLINK-1298,45413,53.05,0.0010167,15.44481405,425.9775036234223,439.82707091015163,1 45413U 20019BF  25273.79256627  .00114864  00000+0  24094-2 0  9996,2 45413  53.0500 119.7682 0010167 134.0529 226.1316 15.44481405306067
STARLINK-1309,45414,53.0541,0.0001211,15.06400553,546.3712035683247,548.0485225785615,1 45414U 20019BG  25273.76560073 -.00001480  00000+0 -80461-4 0  9990,2 45414  53.0541 134.5477 0001211  80.2918 279.8208 15.06400553305746
STARLINK-1316,45415,53.0542,0.0001398,15.06391122,546.2706003308986,548.2069353955922,1 45415U 20019BH  25273.79140731 -.00002214  00000+0 -12984-3 0  9999,2 45415  53.0542 134.4322 0001398 102.0169 258.0977 15.06391122305780
STARLINK-1318,45416,53.0527,5.19e-05,15.56618755,397.0995336062206,397.8028396599939,1 45416U 20019BJ  25273.58632279  .00076609  00000+0  10538-2 0  9999,2 45416  53.0527 114.4545 0000519 218.5656 141.5318 15.56618755306030
STARLINK-1286,45417,53.051,0.0003779,15.0639432,544.6118705762137,549.8460621735994,1 45417U 20019BK  25273.69648572  .00008610  00000+0  59627-3 0  9995,2 45417  53.0510 164.8577 0003779  75.5414 284.5994 15.06394320305605
STARLINK-1308,45419,53.0503,0.0001401,15.06407835,546.2173069270639,548.1577828645441,1 45419U 20019BM  25273.42740150 -.00006491  00000+0 -41715-3 0  9999,2 45419  53.0503 166.0679 0001401  80.2550 279.8598 15.06407835305311
